KUIPER-00112            
1 65150U 25171U   25337.91670139 -.01917680  00000+0 -22960+0 0  9990
2 65150  51.8968 219.2313 0008749 197.6972 244.6573 14.87322989  5016
KUIPER-00114            
1 65151U 25171V   25337.90124911  .00007637  00000+0  10292-2 0  9999
2 65151  51.8999 239.1832 0006757 143.8083 216.3338 14.79942315 18450
KUIPER-00115            
1 65152U 25171W   25337.90922160  .00001186  00000+0  18466-3 0  9997
2 65152  51.9015 231.6264 0010042 168.8097 191.3091 14.79958216 18568
KUIPER-00116            
1 65153U 25171X   25337.12719295 -.00006043  00000+0 -76289-3 0  9991
2 65153  51.9017 240.1261 0011298 134.0310 226.1585 14.79947905 18377
KUIPER-00118            
1 65154U 25171Y   25337.12452350 -.00003312  00000+0 -40557-3 0  9993
2 65154  51.9010 242.5944 0002044 128.5467 231.5678 14.79939920 18343
KUIPER-00119            
1 65155U 25171Z   25337.54322509  .00003144  00000+0  44170-3 0  9998
2 65155  51.9000 228.3282 0008804 158.0562 202.0779 14.79886009 18573
KUIPER-00120            
1 65762U 25217A   25337.60377723  .00008642  00000+0  85598-3 0  9995
2 65762  51.8931 117.5814 0016406 334.4331  25.5823 14.92423559 10516
KUIPER-00132            
1 65763U 25217B   25337.66635908  .00051529  00000+0  13884-2 0  9994
2 65763  51.8619 108.6236 0006156 346.7674  13.3150 15.37304288 10645
